1998-067RA              
1 45257U 98067RA  20349.21887791  .00008573  00000-0  13921-3 0  9996
2 45257  51.6383 172.8107 0006827 304.4663  55.5682 15.53586126 46425
PHOENIX                 
1 45258U 98067RB  20350.22385654  .00008148  00000-0  13505-3 0  9997
2 45258  51.6384 168.2603 0005286 287.8186  72.2228 15.53096947 46541
1998-067RC              
1 45259U 98067RC  20349.95873329  .00014323  00000-0  21582-3 0  9993
2 45259  51.6379 168.0015 0005994 302.5053  57.5358 15.55045612 46551
CRYOCUBE                
1 45260U 98067RD  20349.48650731  .00013184  00000-0  19957-3 0  9990
2 45260  51.6380 170.0995 0006665 301.5905  58.4434 15.54997344 46491
AZTECHSAT-1             
1 45261U 98067RE  20349.91603370  .00018399  00000-0  26257-3 0  9990
2 45261  51.6376 166.9670 0006318 300.8016  59.2353 15.56313453 46552
RADSAT-U                
1 45262U 98067RF  20349.78260199  .00010020  00000-0  16039-3 0  9994
2 45262  51.6397 169.8431 0005711 343.7215  16.3591 15.53773649 46525
QARMAN                  
1 45263U 98067RG  20348.77374543  .00014201  00000-0  21577-3 0  9990
2 45263  51.6380 174.3352 0005991 293.5911  66.4451 15.54825156 46394
SORTIE                  
1 45264U 98067RH  20349.78732232  .00004934  00000-0  87166-4 0  9995
2 45264  51.6399 171.3631 0006799 314.2180  45.8251 15.52290801 46499
ICS-EF (ISS DEB)        
1 45265U 98067RJ  20350.01895403  .00003485  00000-0  67014-4 0  9994
2 45265  51.6396 172.1356 0004815 316.7851  43.2760 15.50862833 46180
PROGRESS-MS 14          
1 45595U 20026A   20348.54999068  .00000948  00000-0  25206-4 0  9995
2 45595  51.6445 180.9789 0001783 128.1963 279.5916 15.49180997 36041
G-SAT                   
1 45597U 98067RK  20349.97231378  .00009697  00000-0  15772-3 0  9994
2 45597  51.6390 170.3484 0004046  12.8825 347.2268 15.53375469 35898
QUETZAL-1               
1 45598U 98067RL  20349.79523764  .00013071  00000-0  20759-3 0  9990
2 45598  51.6386 171.4125 0001989  51.2886 308.8282 15.53692841 35799
