CCSDS_OMM_VERS = 2.0
CREATION_DATE  = 
ORIGINATOR     = 

OBJECT_NAME    = 1998-067RA
OBJECT_ID      = 1998-067RA
CENTER_NAME    = EARTH
REF_FRAME      = TEME
TIME_SYSTEM    = UTC
MEAN_ELEMENT_THEORY = SGP/SGP4

EPOCH          = 2020-12-14T05:15:11.051424
MEAN_MOTION    = 15.53586126
ECCENTRICITY   = .0006827
INCLINATION    = 51.6383
RA_OF_ASC_NODE = 172.8107
ARG_OF_PERICENTER = 304.4663
MEAN_ANOMALY   = 55.5682

EPHEMERIS_TYPE = 0
CLASSIFICATION_TYPE = U
NORAD_CAT_ID   = 45257
ELEMENT_SET_NO = 999
REV_AT_EPOCH   = 4642
BSTAR          = .13921E-3
MEAN_MOTION_DOT = .8573E-4
MEAN_MOTION_DDOT = 0

CCSDS_OMM_VERS = 2.0
CREATION_DATE  = 
ORIGINATOR     = 

OBJECT_NAME    = PHOENIX
OBJECT_ID      = 1998-067RB
CENTER_NAME    = EARTH
REF_FRAME      = TEME
TIME_SYSTEM    = UTC
MEAN_ELEMENT_THEORY = SGP/SGP4

EPOCH          = 2020-12-15T05:22:21.205056
MEAN_MOTION    = 15.53096947
ECCENTRICITY   = .0005286
INCLINATION    = 51.6384
RA_OF_ASC_NODE = 168.2603
ARG_OF_PERICENTER = 287.8186
MEAN_ANOMALY   = 72.2228

EPHEMERIS_TYPE = 0
CLASSIFICATION_TYPE = U
NORAD_CAT_ID   = 45258
ELEMENT_SET_NO = 999
REV_AT_EPOCH   = 4654
BSTAR          = .13505E-3
MEAN_MOTION_DOT = .8148E-4
MEAN_MOTION_DDOT = 0

CCSDS_OMM_VERS = 2.0
CREATION_DATE  = 
ORIGINATOR     = 

OBJECT_NAME    = 1998-067RC
OBJECT_ID      = 1998-067RC
CENTER_NAME    = EARTH
REF_FRAME      = TEME
TIME_SYSTEM    = UTC
MEAN_ELEMENT_THEORY = SGP/SGP4

EPOCH          = 2020-12-14T23:00:34.556256
MEAN_MOTION    = 15.55045612
ECCENTRICITY   = .0005994
INCLINATION    = 51.6379
RA_OF_ASC_NODE = 168.0015
ARG_OF_PERICENTER = 302.5053
MEAN_ANOMALY   = 57.5358

EPHEMERIS_TYPE = 0
CLASSIFICATION_TYPE = U
NORAD_CAT_ID   = 45259
ELEMENT_SET_NO = 999
REV_AT_EPOCH   = 4655
BSTAR          = .21582E-3
MEAN_MOTION_DOT = .14323E-3
MEAN_MOTION_DDOT = 0

CCSDS_OMM_VERS = 2.0
CREATION_DATE  = 
ORIGINATOR     = 

OBJECT_NAME    = CRYOCUBE
OBJECT_ID      = 1998-067RD
CENTER_NAME    = EARTH
REF_FRAME      = TEME
TIME_SYSTEM    = UTC
MEAN_ELEMENT_THEORY = SGP/SGP4

EPOCH          = 2020-12-14T11:40:34.231584
MEAN_MOTION    = 15.54997344
ECCENTRICITY   = .0006665
INCLINATION    = 51.6380
RA_OF_ASC_NODE = 170.0995
ARG_OF_PERICENTER = 301.5905
MEAN_ANOMALY   = 58.4434

EPHEMERIS_TYPE = 0
CLASSIFICATION_TYPE = U
NORAD_CAT_ID   = 45260
ELEMENT_SET_NO = 999
REV_AT_EPOCH   = 4649
BSTAR          = .19957E-3
MEAN_MOTION_DOT = .13184E-3
MEAN_MOTION_DDOT = 0

CCSDS_OMM_VERS = 2.0
CREATION_DATE  = 
ORIGINATOR     = 

OBJECT_NAME    = AZTECHSAT-1
OBJECT_ID      = 1998-067RE
CENTER_NAME    = EARTH
REF_FRAME      = TEME
TIME_SYSTEM    = UTC
MEAN_ELEMENT_THEORY = SGP/SGP4

EPOCH          = 2020-12-14T21:59:05.311680
MEAN_MOTION    = 15.56313453
ECCENTRICITY   = .0006318
INCLINATION    = 51.6376
RA_OF_ASC_NODE = 166.9670
ARG_OF_PERICENTER = 300.8016
MEAN_ANOMALY   = 59.2353

EPHEMERIS_TYPE = 0
CLASSIFICATION_TYPE = U
NORAD_CAT_ID   = 45261
ELEMENT_SET_NO = 999
REV_AT_EPOCH   = 4655
BSTAR          = .26257E-3
MEAN_MOTION_DOT = .18399E-3
MEAN_MOTION_DDOT = 0

CCSDS_OMM_VERS = 2.0
CREATION_DATE  = 
ORIGINATOR     = 

OBJECT_NAME    = RADSAT-U
OBJECT_ID      = 1998-067RF
CENTER_NAME    = EARTH
REF_FRAME      = TEME
TIME_SYSTEM    = UTC
MEAN_ELEMENT_THEORY = SGP/SGP4

EPOCH          = 2020-12-14T18:46:56.811936
MEAN_MOTION    = 15.53773649
ECCENTRICITY   = .0005711
INCLINATION    = 51.6397
RA_OF_ASC_NODE = 169.8431
ARG_OF_PERICENTER = 343.7215
MEAN_ANOMALY   = 16.3591

EPHEMERIS_TYPE = 0
CLASSIFICATION_TYPE = U
NORAD_CAT_ID   = 45262
ELEMENT_SET_NO = 999
REV_AT_EPOCH   = 4652
BSTAR          = .16039E-3
MEAN_MOTION_DOT = .1002E-3
MEAN_MOTION_DDOT = 0

CCSDS_OMM_VERS = 2.0
CREATION_DATE  = 
ORIGINATOR     = 

OBJECT_NAME    = QARMAN
OBJECT_ID      = 1998-067RG
CENTER_NAME    = EARTH
REF_FRAME      = TEME
TIME_SYSTEM    = UTC
MEAN_ELEMENT_THEORY = SGP/SGP4

EPOCH          = 2020-12-13T18:34:11.605152
MEAN_MOTION    = 15.54825156
ECCENTRICITY   = .0005991
INCLINATION    = 51.6380
RA_OF_ASC_NODE = 174.3352
ARG_OF_PERICENTER = 293.5911
MEAN_ANOMALY   = 66.4451

EPHEMERIS_TYPE = 0
CLASSIFICATION_TYPE = U
NORAD_CAT_ID   = 45263
ELEMENT_SET_NO = 999
REV_AT_EPOCH   = 4639
BSTAR          = .21577E-3
MEAN_MOTION_DOT = .14201E-3
MEAN_MOTION_DDOT = 0

CCSDS_OMM_VERS = 2.0
CREATION_DATE  = 
ORIGINATOR     = 

OBJECT_NAME    = SORTIE
OBJECT_ID      = 1998-067RH
CENTER_NAME    = EARTH
REF_FRAME      = TEME
TIME_SYSTEM    = UTC
MEAN_ELEMENT_THEORY = SGP/SGP4

EPOCH          = 2020-12-14T18:53:44.648448
MEAN_MOTION    = 15.52290801
ECCENTRICITY   = .0006799
INCLINATION    = 51.6399
RA_OF_ASC_NODE = 171.3631
ARG_OF_PERICENTER = 314.2180
MEAN_ANOMALY   = 45.8251

EPHEMERIS_TYPE = 0
CLASSIFICATION_TYPE = U
NORAD_CAT_ID   = 45264
ELEMENT_SET_NO = 999
REV_AT_EPOCH   = 4649
BSTAR          = .87166E-4
MEAN_MOTION_DOT = .4934E-4
MEAN_MOTION_DDOT = 0

CCSDS_OMM_VERS = 2.0
CREATION_DATE  = 
ORIGINATOR     = 

OBJECT_NAME    = ICS-EF (ISS DEB)
OBJECT_ID      = 1998-067RJ
CENTER_NAME    = EARTH
REF_FRAME      = TEME
TIME_SYSTEM    = UTC
MEAN_ELEMENT_THEORY = SGP/SGP4

EPOCH          = 2020-12-15T00:27:17.628192
MEAN_MOTION    = 15.50862833
ECCENTRICITY   = .0004815
INCLINATION    = 51.6396
RA_OF_ASC_NODE = 172.1356
ARG_OF_PERICENTER = 316.7851
MEAN_ANOMALY   = 43.2760

EPHEMERIS_TYPE = 0
CLASSIFICATION_TYPE = U
NORAD_CAT_ID   = 45265
ELEMENT_SET_NO = 999
REV_AT_EPOCH   = 4618
BSTAR          = .67014E-4
MEAN_MOTION_DOT = .3485E-4
MEAN_MOTION_DDOT = 0

CCSDS_OMM_VERS = 2.0
CREATION_DATE  = 
ORIGINATOR     = 

OBJECT_NAME    = PROGRESS-MS 14
OBJECT_ID      = 2020-026A
CENTER_NAME    = EARTH
REF_FRAME      = TEME
TIME_SYSTEM    = UTC
MEAN_ELEMENT_THEORY = SGP/SGP4

EPOCH          = 2020-12-13T13:11:59.194752
MEAN_MOTION    = 15.49180997
ECCENTRICITY   = .0001783
INCLINATION    = 51.6445
RA_OF_ASC_NODE = 180.9789
ARG_OF_PERICENTER = 128.1963
MEAN_ANOMALY   = 279.5916

EPHEMERIS_TYPE = 0
CLASSIFICATION_TYPE = U
NORAD_CAT_ID   = 45595
ELEMENT_SET_NO = 999
REV_AT_EPOCH   = 3604
BSTAR          = .25206E-4
MEAN_MOTION_DOT = .948E-5
MEAN_MOTION_DDOT = 0

CCSDS_OMM_VERS = 2.0
CREATION_DATE  = 
ORIGINATOR     = 

OBJECT_NAME    = G-SAT
OBJECT_ID      = 1998-067RK
CENTER_NAME    = EARTH
REF_FRAME      = TEME
TIME_SYSTEM    = UTC
MEAN_ELEMENT_THEORY = SGP/SGP4

EPOCH          = 2020-12-14T23:20:07.910592
MEAN_MOTION    = 15.53375469
ECCENTRICITY   = .0004046
INCLINATION    = 51.6390
RA_OF_ASC_NODE = 170.3484
ARG_OF_PERICENTER = 12.8825
MEAN_ANOMALY   = 347.2268

EPHEMERIS_TYPE = 0
CLASSIFICATION_TYPE = U
NORAD_CAT_ID   = 45597
ELEMENT_SET_NO = 999
REV_AT_EPOCH   = 3589
BSTAR          = .15772E-3
MEAN_MOTION_DOT = .9697E-4
MEAN_MOTION_DDOT = 0

CCSDS_OMM_VERS = 2.0
CREATION_DATE  = 
ORIGINATOR     = 

OBJECT_NAME    = QUETZAL-1
OBJECT_ID      = 1998-067RL
CENTER_NAME    = EARTH
REF_FRAME      = TEME
TIME_SYSTEM    = UTC
MEAN_ELEMENT_THEORY = SGP/SGP4

EPOCH          = 2020-12-14T19:05:08.532096
MEAN_MOTION    = 15.53692841
ECCENTRICITY   = .0001989
INCLINATION    = 51.6386
RA_OF_ASC_NODE = 171.4125
ARG_OF_PERICENTER = 51.2886
MEAN_ANOMALY   = 308.8282

EPHEMERIS_TYPE = 0
CLASSIFICATION_TYPE = U
NORAD_CAT_ID   = 45598
ELEMENT_SET_NO = 999
REV_AT_EPOCH   = 3579
BSTAR          = .20759E-3
MEAN_MOTION_DOT = .13071E-3
MEAN_MOTION_DDOT = 0

